[{"OBJECT_NAME":"LEMUR-2-JK0903EM1407","OBJECT_ID":"2023-174CJ","EPOCH":"2026-03-15T05:39:42.979104","MEAN_MOTION":15.47015236,"ECCENTRICITY":0.00059279,"INCLINATION":97.3915,"RA_OF_ASC_NODE":162.429,"ARG_OF_PERICENTER":96.1019,"MEAN_ANOMALY":264.0906,"EPHEMERIS_TYPE":0,"CLASSIFICATION_TYPE":"U","NORAD_CAT_ID":58336,"ELEMENT_SET_NO":999,"REV_AT_EPOCH":13118,"BSTAR":0.00055970925,"MEAN_MOTION_DOT":0.00028259,"MEAN_MOTION_DDOT":0},{"OBJECT_NAME":"LEMUR-2-MJR092620","OBJECT_ID":"2023-174CN","EPOCH":"2026-03-15T06:46:40.901376","MEAN_MOTION":15.42307129,"ECCENTRICITY":0.00082335,"INCLINATION":97.3981,"RA_OF_ASC_NODE":162.7946,"ARG_OF_PERICENTER":98.7406,"MEAN_ANOMALY":261.4774,"EPHEMERIS_TYPE":0,"CLASSIFICATION_TYPE":"U","NORAD_CAT_ID":58340,"ELEMENT_SET_NO":999,"REV_AT_EPOCH":13116,"BSTAR":0.00033868498,"MEAN_MOTION_DOT":0.00014523,"MEAN_MOTION_DDOT":0},{"OBJECT_NAME":"LEMUR-2-NIMBUS2000","OBJECT_ID":"2024-022A","EPOCH":"2026-03-15T06:58:50.235744","MEAN_MOTION":15.369947,"ECCENTRICITY":0.00106976,"INCLINATION":97.4228,"RA_OF_ASC_NODE":283.258,"ARG_OF_PERICENTER":95.718,"MEAN_ANOMALY":264.5284,"EPHEMERIS_TYPE":0,"CLASSIFICATION_TYPE":"U","NORAD_CAT_ID":58899,"ELEMENT_SET_NO":999,"REV_AT_EPOCH":11783,"BSTAR":0.00055170621,"MEAN_MOTION_DOT":0.00019947,"MEAN_MOTION_DDOT":0},{"OBJECT_NAME":"LEMUR-2-VALHALLA","OBJECT_ID":"2024-022B","EPOCH":"2026-03-15T03:22:32.865024","MEAN_MOTION":15.36749064,"ECCENTRICITY":0.00112217,"INCLINATION":97.4227,"RA_OF_ASC_NODE":283.1377,"ARG_OF_PERICENTER":92.1211,"MEAN_ANOMALY":268.1319,"EPHEMERIS_TYPE":0,"CLASSIFICATION_TYPE":"U","NORAD_CAT_ID":58900,"ELEMENT_SET_NO":999,"REV_AT_EPOCH":11781,"BSTAR":0.00059999867,"MEAN_MOTION_DOT":0.00021538,"MEAN_MOTION_DDOT":0},{"OBJECT_NAME":"LEMUR-2-OBA-NI-JESU","OBJECT_ID":"2024-022D","EPOCH":"2026-03-15T03:54:03.048192","MEAN_MOTION":15.6669512,"ECCENTRICITY":0.00045475,"INCLINATION":97.4057,"RA_OF_ASC_NODE":292.5055,"ARG_OF_PERICENTER":53.8081,"MEAN_ANOMALY":306.36,"EPHEMERIS_TYPE":0,"CLASSIFICATION_TYPE":"U","NORAD_CAT_ID":58902,"ELEMENT_SET_NO":999,"REV_AT_EPOCH":11845,"BSTAR":0.0011080446,"MEAN_MOTION_DOT":0.00117606,"MEAN_MOTION_DDOT":0},{"OBJECT_NAME":"LEMUR-2-CAEL","OBJECT_ID":"2024-022E","EPOCH":"2026-03-14T20:00:54.560448","MEAN_MOTION":15.37885098,"ECCENTRICITY":0.0009443,"INCLINATION":97.4212,"RA_OF_ASC_NODE":283.6097,"ARG_OF_PERICENTER":78.712,"MEAN_ANOMALY":281.5185,"EPHEMERIS_TYPE":0,"CLASSIFICATION_TYPE":"U","NORAD_CAT_ID":58903,"ELEMENT_SET_NO":999,"REV_AT_EPOCH":11782,"BSTAR":0.00059190427,"MEAN_MOTION_DOT":0.00022029,"MEAN_MOTION_DDOT":0},{"OBJECT_NAME":"LEMUR-2-JOHNNYTRUONG","OBJECT_ID":"2024-043BA","EPOCH":"2026-03-15T04:37:03.274464","MEAN_MOTION":15.5359154,"ECCENTRICITY":0.00053426,"INCLINATION":97.5262,"RA_OF_ASC_NODE":220.6308,"ARG_OF_PERICENTER":166.7178,"MEAN_ANOMALY":193.4216,"EPHEMERIS_TYPE":0,"CLASSIFICATION_TYPE":"U","NORAD_CAT_ID":59146,"ELEMENT_SET_NO":999,"REV_AT_EPOCH":11341,"BSTAR":0.00066883135,"MEAN_MOTION_DOT":0.00042689,"MEAN_MOTION_DDOT":0},{"OBJECT_NAME":"LEMUR-2-TOMATOKECHUP","OBJECT_ID":"2024-149D","EPOCH":"2026-03-14T17:10:25.902048","MEAN_MOTION":15.33959476,"ECCENTRICITY":0.00018061,"INCLINATION":97.3843,"RA_OF_ASC_NODE":155.6572,"ARG_OF_PERICENTER":174.126,"MEAN_ANOMALY":186.0005,"EPHEMERIS_TYPE":0,"CLASSIFICATION_TYPE":"U","NORAD_CAT_ID":60471,"ELEMENT_SET_NO":999,"REV_AT_EPOCH":8767,"BSTAR":0.00079863182,"MEAN_MOTION_DOT":0.00026219,"MEAN_MOTION_DDOT":0},{"OBJECT_NAME":"LEMUR-2-STELLA","OBJECT_ID":"2024-149BT","EPOCH":"2026-03-15T05:28:50.522592","MEAN_MOTION":15.09635686,"ECCENTRICITY":0.00012704,"INCLINATION":97.6772,"RA_OF_ASC_NODE":156.4213,"ARG_OF_PERICENTER":93.215,"MEAN_ANOMALY":266.9224,"EPHEMERIS_TYPE":0,"CLASSIFICATION_TYPE":"U","NORAD_CAT_ID":60533,"ELEMENT_SET_NO":999,"REV_AT_EPOCH":8631,"BSTAR":0.0009573472,"MEAN_MOTION_DOT":0.00015357,"MEAN_MOTION_DDOT":0},{"OBJECT_NAME":"LEMUR-2-MARHISYAM","OBJECT_ID":"2024-149BW","EPOCH":"2026-03-15T04:15:36.596160","MEAN_MOTION":15.09174952,"ECCENTRICITY":0.00031367,"INCLINATION":97.6909,"RA_OF_ASC_NODE":156.7167,"ARG_OF_PERICENTER":96.7081,"MEAN_ANOMALY":263.4504,"EPHEMERIS_TYPE":0,"CLASSIFICATION_TYPE":"U","NORAD_CAT_ID":60536,"ELEMENT_SET_NO":999,"REV_AT_EPOCH":8629,"BSTAR":0.00098756333,"MEAN_MOTION_DOT":0.00015647,"MEAN_MOTION_DDOT":0},{"OBJECT_NAME":"LEMUR-2-AHMED-ASRAR","OBJECT_ID":"2024-149DN","EPOCH":"2026-03-15T03:57:26.172864","MEAN_MOTION":15.10541606,"ECCENTRICITY":0.0001202,"INCLINATION":97.703,"RA_OF_ASC_NODE":158.4506,"ARG_OF_PERICENTER":2.7889,"MEAN_ANOMALY":357.3347,"EPHEMERIS_TYPE":0,"CLASSIFICATION_TYPE":"U","NORAD_CAT_ID":60576,"ELEMENT_SET_NO":999,"REV_AT_EPOCH":8636,"BSTAR":0.00095848938,"MEAN_MOTION_DOT":0.00015764,"MEAN_MOTION_DDOT":0},{"OBJECT_NAME":"LEMUR-2-LLOYD","OBJECT_ID":"2024-149DP","EPOCH":"2026-03-15T04:03:53.622432","MEAN_MOTION":15.07325114,"ECCENTRICITY":0.00051437,"INCLINATION":97.6783,"RA_OF_ASC_NODE":155.3757,"ARG_OF_PERICENTER":111.955,"MEAN_ANOMALY":248.2225,"EPHEMERIS_TYPE":0,"CLASSIFICATION_TYPE":"U","NORAD_CAT_ID":60577,"ELEMENT_SET_NO":999,"REV_AT_EPOCH":8622,"BSTAR":0.00097950481,"MEAN_MOTION_DOT":0.00014757,"MEAN_MOTION_DDOT":0},{"OBJECT_NAME":"LEMUR-2-SQUIRRELCOMM","OBJECT_ID":"2024-149DQ","EPOCH":"2026-03-15T05:01:03.041472","MEAN_MOTION":15.05979514,"ECCENTRICITY":0.0005827,"INCLINATION":97.6756,"RA_OF_ASC_NODE":155.4897,"ARG_OF_PERICENTER":28.5575,"MEAN_ANOMALY":331.597,"EPHEMERIS_TYPE":0,"CLASSIFICATION_TYPE":"U","NORAD_CAT_ID":60578,"ELEMENT_SET_NO":999,"REV_AT_EPOCH":8625,"BSTAR":0.00056183755,"MEAN_MOTION_DOT":8.129e-5,"MEAN_MOTION_DDOT":0},{"OBJECT_NAME":"LEMUR-2-SIERRINI","OBJECT_ID":"2024-149DR","EPOCH":"2026-03-15T04:20:33.735264","MEAN_MOTION":15.0883806,"ECCENTRICITY":0.00065703,"INCLINATION":97.6865,"RA_OF_ASC_NODE":156.5021,"ARG_OF_PERICENTER":135.2792,"MEAN_ANOMALY":224.8967,"EPHEMERIS_TYPE":0,"CLASSIFICATION_TYPE":"U","NORAD_CAT_ID":60579,"ELEMENT_SET_NO":999,"REV_AT_EPOCH":8627,"BSTAR":0.0010232427,"MEAN_MOTION_DOT":0.00016073,"MEAN_MOTION_DDOT":0},{"OBJECT_NAME":"LEMUR-2-WILSON","OBJECT_ID":"2025-009CP","EPOCH":"2026-03-15T04:30:01.648512","MEAN_MOTION":14.94718792,"ECCENTRICITY":0.0003241,"INCLINATION":97.707,"RA_OF_ASC_NODE":154.3191,"ARG_OF_PERICENTER":19.6851,"MEAN_ANOMALY":340.4494,"EPHEMERIS_TYPE":0,"CLASSIFICATION_TYPE":"U","NORAD_CAT_ID":62694,"ELEMENT_SET_NO":999,"REV_AT_EPOCH":6331,"BSTAR":0.0002380002,"MEAN_MOTION_DOT":2.527e-5,"MEAN_MOTION_DDOT":0},{"OBJECT_NAME":"LEMUR-2-STAR-FOX","OBJECT_ID":"2025-009CR","EPOCH":"2026-03-15T05:06:10.907136","MEAN_MOTION":15.01001845,"ECCENTRICITY":0.00030345,"INCLINATION":97.7033,"RA_OF_ASC_NODE":156.6085,"ARG_OF_PERICENTER":142.2756,"MEAN_ANOMALY":217.8681,"EPHEMERIS_TYPE":0,"CLASSIFICATION_TYPE":"U","NORAD_CAT_ID":62696,"ELEMENT_SET_NO":999,"REV_AT_EPOCH":6345,"BSTAR":0.00091411181,"MEAN_MOTION_DOT":0.00011622,"MEAN_MOTION_DDOT":0}]
