LEMUR-2-JK0903EM1407    
1 58336U 23174CJ  26074.23591411  .00028259  00000+0  55971-3 0  9992
2 58336  97.3915 162.4290 0005927  96.1019 264.0906 15.47015236131189
LEMUR-2-MJR092620       
1 58340U 23174CN  26074.28241784  .00014523  00000+0  33868-3 0  9997
2 58340  97.3981 162.7946 0008233  98.7406 261.4774 15.42307129131161
LEMUR-2-NIMBUS2000      
1 58899U 24022A   26074.29085921  .00019947  00000+0  55171-3 0  9995
2 58899  97.4228 283.2580 0010697  95.7180 264.5284 15.36994700117839
LEMUR-2-VALHALLA        
1 58900U 24022B   26074.14065816  .00021538  00000+0  60000-3 0  9999
2 58900  97.4227 283.1377 0011221  92.1211 268.1319 15.36749064117812
LEMUR-2-OBA-NI-JESU     
1 58902U 24022D   26074.16253528  .00117606  00000+0  11080-2 0  9997
2 58902  97.4057 292.5055 0004547  53.8081 306.3600 15.66695120118459
LEMUR-2-CAEL            
1 58903U 24022E   26073.83396482  .00022029  00000+0  59190-3 0  9997
2 58903  97.4212 283.6097 0009443  78.7120 281.5185 15.37885098117825
LEMUR-2-JOHNNYTRUONG    
1 59146U 24043BA  26074.19239901  .00042689  00000+0  66883-3 0  9993
2 59146  97.5262 220.6308 0005342 166.7178 193.4216 15.53591540113413
LEMUR-2-TOMATOKECHUP    
1 60471U 24149D   26073.71557757  .00026219  00000+0  79863-3 0  9995
2 60471  97.3843 155.6572 0001806 174.1260 186.0005 15.33959476 87671
LEMUR-2-STELLA          
1 60533U 24149BT  26074.22836253  .00015357  00000+0  95735-3 0  9999
2 60533  97.6772 156.4213 0001270  93.2150 266.9224 15.09635686 86317
LEMUR-2-MARHISYAM       
1 60536U 24149BW  26074.17750690  .00015647  00000+0  98756-3 0  9994
2 60536  97.6909 156.7167 0003136  96.7081 263.4504 15.09174952 86291
LEMUR-2-AHMED-ASRAR     
1 60576U 24149DN  26074.16488626  .00015764  00000+0  95849-3 0  9994
2 60576  97.7030 158.4506 0001202   2.7889 357.3347 15.10541606 86364
LEMUR-2-LLOYD           
1 60577U 24149DP  26074.16937063  .00014757  00000+0  97950-3 0  9995
2 60577  97.6783 155.3757 0005143 111.9550 248.2225 15.07325114 86227
LEMUR-2-SQUIRRELCOMM    
1 60578U 24149DQ  26074.20906298  .00008129  00000+0  56184-3 0  9997
2 60578  97.6756 155.4897 0005827  28.5575 331.5970 15.05979514 86256
LEMUR-2-SIERRINI        
1 60579U 24149DR  26074.18094601  .00016073  00000+0  10232-2 0  9991
2 60579  97.6865 156.5021 0006570 135.2792 224.8967 15.08838060 86277
LEMUR-2-WILSON          
1 62694U 25009CP  26074.18751908  .00002527  00000+0  23800-3 0  9992
2 62694  97.7070 154.3191 0003241  19.6851 340.4494 14.94718792 63316
LEMUR-2-STAR-FOX        
1 62696U 25009CR  26074.21262624  .00011622  00000+0  91411-3 0  9999
2 62696  97.7033 156.6085 0003034 142.2756 217.8681 15.01001845 63454
